{
  "type": "FeatureCollection",
  "features": [
    {
      "type": "Feature",
      "properties": {
        "building": "POLOA",
        "floor": "6",
        "room": "621",
        "sensor_ids": [
          126,
          127,
          128,
          129,
          130
        ]
      },
      "geometry": {
        "type": "Polygon",
        "coordinates": [
          [
            [
              9.19,
              45.464
            ],
            [
              9.190059999999999,
              45.464
            ],
            [
              9.190059999999999,
              45.46404
            ],
            [
              9.19,
              45.46404
            ],
            [
              9.19,
              45.464
            ]
          ]
        ]
      }
    },
    {
      "type": "Feature",
      "properties": {
        "building": "POLOA",
        "floor": "6",
        "room": "621A",
        "sensor_ids": [
          131,
          132,
          133,
          134,
          135
        ]
      },
      "geometry": {
        "type": "Polygon",
        "coordinates": [
          [
            [
              9.19015,
              45.464
            ],
            [
              9.190209999999999,
              45.464
            ],
            [
              9.190209999999999,
              45.46404
            ],
            [
              9.19015,
              45.46404
            ],
            [
              9.19015,
              45.464
            ]
          ]
        ]
      }
    },
    {
      "type": "Feature",
      "properties": {
        "building": "POLOA",
        "floor": "6",
        "room": "621C",
        "sensor_ids": [
          136,
          137,
          138,
          139,
          140
        ]
      },
      "geometry": {
        "type": "Polygon",
        "coordinates": [
          [
            [
              9.190299999999999,
              45.464
            ],
            [
              9.190359999999998,
              45.464
            ],
            [
              9.190359999999998,
              45.46404
            ],
            [
              9.190299999999999,
              45.46404
            ],
            [
              9.190299999999999,
              45.464
            ]
          ]
        ]
      }
    },
    {
      "type": "Feature",
      "properties": {
        "building": "POLOA",
        "floor": "6",
        "room": "621D",
        "sensor_ids": [
          141,
          142,
          143,
          144,
          145
        ]
      },
      "geometry": {
        "type": "Polygon",
        "coordinates": [
          [
            [
              9.19045,
              45.464
            ],
            [
              9.19051,
              45.464
            ],
            [
              9.19051,
              45.46404
            ],
            [
              9.19045,
              45.46404
            ],
            [
              9.19045,
              45.464
            ]
          ]
        ]
      }
    },
    {
      "type": "Feature",
      "properties": {
        "building": "POLOA",
        "floor": "6",
        "room": "621E",
        "sensor_ids": [
          146,
          147,
          148,
          149,
          150
        ]
      },
      "geometry": {
        "type": "Polygon",
        "coordinates": [
          [
            [
              9.1906,
              45.464
            ],
            [
              9.19066,
              45.464
            ],
            [
              9.19066,
              45.46404
            ],
            [
              9.1906,
              45.46404
            ],
            [
              9.1906,
              45.464
            ]
          ]
        ]
      }
    },
    {
      "type": "Feature",
      "properties": {
        "building": "POLOA",
        "floor": "6",
        "room": "640",
        "sensor_ids": [
          151,
          152,
          153,
          154,
          155
        ]
      },
      "geometry": {
        "type": "Polygon",
        "coordinates": [
          [
            [
              9.19,
              45.46415
            ],
            [
              9.190059999999999,
              45.46415
            ],
            [
              9.190059999999999,
              45.464189999999995
            ],
            [
              9.19,
              45.464189999999995
            ],
            [
              9.19,
              45.46415
            ]
          ]
        ]
      }
    },
    {
      "type": "Feature",
      "properties": {
        "building": "POLOA",
        "floor": "6",
        "room": "644",
        "sensor_ids": [
          156,
          157,
          158,
          159,
          160
        ]
      },
      "geometry": {
        "type": "Polygon",
        "coordinates": [
          [
            [
              9.19015,
              45.46415
            ],
            [
              9.190209999999999,
              45.46415
            ],
            [
              9.190209999999999,
              45.464189999999995
            ],
            [
              9.19015,
              45.464189999999995
            ],
            [
              9.19015,
              45.46415
            ]
          ]
        ]
      }
    },
    {
      "type": "Feature",
      "properties": {
        "building": "POLOA",
        "floor": "6",
        "room": "648",
        "sensor_ids": [
          161,
          162,
          163,
          164,
          165
        ]
      },
      "geometry": {
        "type": "Polygon",
        "coordinates": [
          [
            [
              9.190299999999999,
              45.46415
            ],
            [
              9.190359999999998,
              45.46415
            ],
            [
              9.190359999999998,
              45.464189999999995
            ],
            [
              9.190299999999999,
              45.464189999999995
            ],
            [
              9.190299999999999,
              45.46415
            ]
          ]
        ]
      }
    },
    {
      "type": "Feature",
      "properties": {
        "building": "POLOA",
        "floor": "6",
        "room": "656A",
        "sensor_ids": [
          166,
          167,
          168,
          169,
          170
        ]
      },
      "geometry": {
        "type": "Polygon",
        "coordinates": [
          [
            [
              9.19045,
              45.46415
            ],
            [
              9.19051,
              45.46415
            ],
            [
              9.19051,
              45.464189999999995
            ],
            [
              9.19045,
              45.464189999999995
            ],
            [
              9.19045,
              45.46415
            ]
          ]
        ]
      }
    },
    {
      "type": "Feature",
      "properties": {
        "building": "POLOA",
        "floor": "6",
        "room": "656B",
        "sensor_ids": [
          171,
          172,
          173,
          174,
          175
        ]
      },
      "geometry": {
        "type": "Polygon",
        "coordinates": [
          [
            [
              9.1906,
              45.46415
            ],
            [
              9.19066,
              45.46415
            ],
            [
              9.19066,
              45.464189999999995
            ],
            [
              9.1906,
              45.464189999999995
            ],
            [
              9.1906,
              45.46415
            ]
          ]
        ]
      }
    },
    {
      "type": "Feature",
      "properties": {
        "building": "POLOA",
        "floor": "6",
        "room": "664",
        "sensor_ids": [
          176,
          177,
          178,
          179,
          180
        ]
      },
      "geometry": {
        "type": "Polygon",
        "coordinates": [
          [
            [
              9.19,
              45.4643
            ],
            [
              9.190059999999999,
              45.4643
            ],
            [
              9.190059999999999,
              45.46434
            ],
            [
              9.19,
              45.46434
            ],
            [
              9.19,
              45.4643
            ]
          ]
        ]
      }
    },
    {
      "type": "Feature",
      "properties": {
        "building": "POLOA",
        "floor": "6",
        "room": "666",
        "sensor_ids": [
          181,
          182,
          183,
          184,
          185
        ]
      },
      "geometry": {
        "type": "Polygon",
        "coordinates": [
          [
            [
              9.19015,
              45.4643
            ],
            [
              9.190209999999999,
              45.4643
            ],
            [
              9.190209999999999,
              45.46434
            ],
            [
              9.19015,
              45.46434
            ],
            [
              9.19015,
              45.4643
            ]
          ]
        ]
      }
    },
    {
      "type": "Feature",
      "properties": {
        "building": "POLOA",
        "floor": "6",
        "room": "668",
        "sensor_ids": [
          186,
          187,
          188,
          189,
          190
        ]
      },
      "geometry": {
        "type": "Polygon",
        "coordinates": [
          [
            [
              9.190299999999999,
              45.4643
            ],
            [
              9.190359999999998,
              45.4643
            ],
            [
              9.190359999999998,
              45.46434
            ],
            [
              9.190299999999999,
              45.46434
            ],
            [
              9.190299999999999,
              45.4643
            ]
          ]
        ]
      }
    }
  ]
}