{
  "type": "FeatureCollection",
  "features": [
    {
      "type": "Feature",
      "properties": {
        "building": "POLOA",
        "floor": "4",
        "room": "413",
        "sensor_ids": [
          1,
          2,
          3,
          4,
          5
        ]
      },
      "geometry": {
        "type": "Polygon",
        "coordinates": [
          [
            [
              9.19,
              45.464
            ],
            [
              9.190059999999999,
              45.464
            ],
            [
              9.190059999999999,
              45.46404
            ],
            [
              9.19,
              45.46404
            ],
            [
              9.19,
              45.464
            ]
          ]
        ]
      }
    },
    {
      "type": "Feature",
      "properties": {
        "building": "POLOA",
        "floor": "4",
        "room": "415",
        "sensor_ids": [
          6,
          7,
          8,
          9,
          10
        ]
      },
      "geometry": {
        "type": "Polygon",
        "coordinates": [
          [
            [
              9.19015,
              45.464
            ],
            [
              9.190209999999999,
              45.464
            ],
            [
              9.190209999999999,
              45.46404
            ],
            [
              9.19015,
              45.46404
            ],
            [
              9.19015,
              45.464
            ]
          ]
        ]
      }
    },
    {
      "type": "Feature",
      "properties": {
        "building": "POLOA",
        "floor": "4",
        "room": "417",
        "sensor_ids": [
          11,
          12,
          13,
          14,
          15
        ]
      },
      "geometry": {
        "type": "Polygon",
        "coordinates": [
          [
            [
              9.190299999999999,
              45.464
            ],
            [
              9.190359999999998,
              45.464
            ],
            [
              9.190359999999998,
              45.46404
            ],
            [
              9.190299999999999,
              45.46404
            ],
            [
              9.190299999999999,
              45.464
            ]
          ]
        ]
      }
    },
    {
      "type": "Feature",
      "properties": {
        "building": "POLOA",
        "floor": "4",
        "room": "419",
        "sensor_ids": [
          16,
          17,
          18,
          19,
          20
        ]
      },
      "geometry": {
        "type": "Polygon",
        "coordinates": [
          [
            [
              9.19045,
              45.464
            ],
            [
              9.19051,
              45.464
            ],
            [
              9.19051,
              45.46404
            ],
            [
              9.19045,
              45.46404
            ],
            [
              9.19045,
              45.464
            ]
          ]
        ]
      }
    },
    {
      "type": "Feature",
      "properties": {
        "building": "POLOA",
        "floor": "4",
        "room": "421",
        "sensor_ids": [
          21,
          22,
          23,
          24,
          25
        ]
      },
      "geometry": {
        "type": "Polygon",
        "coordinates": [
          [
            [
              9.1906,
              45.464
            ],
            [
              9.19066,
              45.464
            ],
            [
              9.19066,
              45.46404
            ],
            [
              9.1906,
              45.46404
            ],
            [
              9.1906,
              45.464
            ]
          ]
        ]
      }
    },
    {
      "type": "Feature",
      "properties": {
        "building": "POLOA",
        "floor": "4",
        "room": "422",
        "sensor_ids": [
          26,
          27,
          28,
          29,
          30
        ]
      },
      "geometry": {
        "type": "Polygon",
        "coordinates": [
          [
            [
              9.19,
              45.46415
            ],
            [
              9.190059999999999,
              45.46415
            ],
            [
              9.190059999999999,
              45.464189999999995
            ],
            [
              9.19,
              45.464189999999995
            ],
            [
              9.19,
              45.46415
            ]
          ]
        ]
      }
    },
    {
      "type": "Feature",
      "properties": {
        "building": "POLOA",
        "floor": "4",
        "room": "423",
        "sensor_ids": [
          31,
          32,
          33,
          34,
          35
        ]
      },
      "geometry": {
        "type": "Polygon",
        "coordinates": [
          [
            [
              9.19015,
              45.46415
            ],
            [
              9.190209999999999,
              45.46415
            ],
            [
              9.190209999999999,
              45.464189999999995
            ],
            [
              9.19015,
              45.464189999999995
            ],
            [
              9.19015,
              45.46415
            ]
          ]
        ]
      }
    },
    {
      "type": "Feature",
      "properties": {
        "building": "POLOA",
        "floor": "4",
        "room": "424",
        "sensor_ids": [
          36,
          37,
          38,
          39,
          40
        ]
      },
      "geometry": {
        "type": "Polygon",
        "coordinates": [
          [
            [
              9.190299999999999,
              45.46415
            ],
            [
              9.190359999999998,
              45.46415
            ],
            [
              9.190359999999998,
              45.464189999999995
            ],
            [
              9.190299999999999,
              45.464189999999995
            ],
            [
              9.190299999999999,
              45.46415
            ]
          ]
        ]
      }
    },
    {
      "type": "Feature",
      "properties": {
        "building": "POLOA",
        "floor": "4",
        "room": "442",
        "sensor_ids": [
          41,
          42,
          43,
          44,
          45
        ]
      },
      "geometry": {
        "type": "Polygon",
        "coordinates": [
          [
            [
              9.19045,
              45.46415
            ],
            [
              9.19051,
              45.46415
            ],
            [
              9.19051,
              45.464189999999995
            ],
            [
              9.19045,
              45.464189999999995
            ],
            [
              9.19045,
              45.46415
            ]
          ]
        ]
      }
    },
    {
      "type": "Feature",
      "properties": {
        "building": "POLOA",
        "floor": "4",
        "room": "446",
        "sensor_ids": [
          46,
          47,
          48,
          49,
          50
        ]
      },
      "geometry": {
        "type": "Polygon",
        "coordinates": [
          [
            [
              9.1906,
              45.46415
            ],
            [
              9.19066,
              45.46415
            ],
            [
              9.19066,
              45.464189999999995
            ],
            [
              9.1906,
              45.464189999999995
            ],
            [
              9.1906,
              45.46415
            ]
          ]
        ]
      }
    },
    {
      "type": "Feature",
      "properties": {
        "building": "POLOA",
        "floor": "4",
        "room": "448",
        "sensor_ids": [
          51,
          52,
          53,
          54,
          55
        ]
      },
      "geometry": {
        "type": "Polygon",
        "coordinates": [
          [
            [
              9.19,
              45.4643
            ],
            [
              9.190059999999999,
              45.4643
            ],
            [
              9.190059999999999,
              45.46434
            ],
            [
              9.19,
              45.46434
            ],
            [
              9.19,
              45.4643
            ]
          ]
        ]
      }
    },
    {
      "type": "Feature",
      "properties": {
        "building": "POLOA",
        "floor": "4",
        "room": "452",
        "sensor_ids": [
          56,
          57,
          58,
          59,
          60
        ]
      },
      "geometry": {
        "type": "Polygon",
        "coordinates": [
          [
            [
              9.19015,
              45.4643
            ],
            [
              9.190209999999999,
              45.4643
            ],
            [
              9.190209999999999,
              45.46434
            ],
            [
              9.19015,
              45.46434
            ],
            [
              9.19015,
              45.4643
            ]
          ]
        ]
      }
    },
    {
      "type": "Feature",
      "properties": {
        "building": "POLOA",
        "floor": "4",
        "room": "454",
        "sensor_ids": [
          61,
          62,
          63,
          64,
          65
        ]
      },
      "geometry": {
        "type": "Polygon",
        "coordinates": [
          [
            [
              9.190299999999999,
              45.4643
            ],
            [
              9.190359999999998,
              45.4643
            ],
            [
              9.190359999999998,
              45.46434
            ],
            [
              9.190299999999999,
              45.46434
            ],
            [
              9.190299999999999,
              45.4643
            ]
          ]
        ]
      }
    },
    {
      "type": "Feature",
      "properties": {
        "building": "POLOA",
        "floor": "4",
        "room": "456",
        "sensor_ids": [
          66,
          67,
          68,
          69,
          70
        ]
      },
      "geometry": {
        "type": "Polygon",
        "coordinates": [
          [
            [
              9.19045,
              45.4643
            ],
            [
              9.19051,
              45.4643
            ],
            [
              9.19051,
              45.46434
            ],
            [
              9.19045,
              45.46434
            ],
            [
              9.19045,
              45.4643
            ]
          ]
        ]
      }
    },
    {
      "type": "Feature",
      "properties": {
        "building": "POLOA",
        "floor": "4",
        "room": "458",
        "sensor_ids": [
          71,
          72,
          73,
          74,
          75
        ]
      },
      "geometry": {
        "type": "Polygon",
        "coordinates": [
          [
            [
              9.1906,
              45.4643
            ],
            [
              9.19066,
              45.4643
            ],
            [
              9.19066,
              45.46434
            ],
            [
              9.1906,
              45.46434
            ],
            [
              9.1906,
              45.4643
            ]
          ]
        ]
      }
    },
    {
      "type": "Feature",
      "properties": {
        "building": "POLOA",
        "floor": "4",
        "room": "462",
        "sensor_ids": [
          76,
          77,
          78,
          79,
          80
        ]
      },
      "geometry": {
        "type": "Polygon",
        "coordinates": [
          [
            [
              9.19,
              45.46445
            ],
            [
              9.190059999999999,
              45.46445
            ],
            [
              9.190059999999999,
              45.46449
            ],
            [
              9.19,
              45.46449
            ],
            [
              9.19,
              45.46445
            ]
          ]
        ]
      }
    }
  ]
}