{
  "type": "FeatureCollection",
  "features": [
    {
      "type": "Feature",
      "properties": {
        "building": "POLOA",
        "floor": "7",
        "room": "717",
        "sensor_ids": [
          191,
          192,
          193,
          194,
          195
        ]
      },
      "geometry": {
        "type": "Polygon",
        "coordinates": [
          [
            [
              9.19,
              45.464
            ],
            [
              9.190059999999999,
              45.464
            ],
            [
              9.190059999999999,
              45.46404
            ],
            [
              9.19,
              45.46404
            ],
            [
              9.19,
              45.464
            ]
          ]
        ]
      }
    },
    {
      "type": "Feature",
      "properties": {
        "building": "POLOA",
        "floor": "7",
        "room": "719",
        "sensor_ids": [
          196,
          197,
          198,
          199,
          200
        ]
      },
      "geometry": {
        "type": "Polygon",
        "coordinates": [
          [
            [
              9.19015,
              45.464
            ],
            [
              9.190209999999999,
              45.464
            ],
            [
              9.190209999999999,
              45.46404
            ],
            [
              9.19015,
              45.46404
            ],
            [
              9.19015,
              45.464
            ]
          ]
        ]
      }
    },
    {
      "type": "Feature",
      "properties": {
        "building": "POLOA",
        "floor": "7",
        "room": "721",
        "sensor_ids": [
          201,
          202,
          203,
          204,
          205
        ]
      },
      "geometry": {
        "type": "Polygon",
        "coordinates": [
          [
            [
              9.190299999999999,
              45.464
            ],
            [
              9.190359999999998,
              45.464
            ],
            [
              9.190359999999998,
              45.46404
            ],
            [
              9.190299999999999,
              45.46404
            ],
            [
              9.190299999999999,
              45.464
            ]
          ]
        ]
      }
    },
    {
      "type": "Feature",
      "properties": {
        "building": "POLOA",
        "floor": "7",
        "room": "722",
        "sensor_ids": [
          206,
          207,
          208,
          209,
          210
        ]
      },
      "geometry": {
        "type": "Polygon",
        "coordinates": [
          [
            [
              9.19045,
              45.464
            ],
            [
              9.19051,
              45.464
            ],
            [
              9.19051,
              45.46404
            ],
            [
              9.19045,
              45.46404
            ],
            [
              9.19045,
              45.464
            ]
          ]
        ]
      }
    },
    {
      "type": "Feature",
      "properties": {
        "building": "POLOA",
        "floor": "7",
        "room": "723",
        "sensor_ids": [
          211,
          212,
          213,
          214,
          215
        ]
      },
      "geometry": {
        "type": "Polygon",
        "coordinates": [
          [
            [
              9.1906,
              45.464
            ],
            [
              9.19066,
              45.464
            ],
            [
              9.19066,
              45.46404
            ],
            [
              9.1906,
              45.46404
            ],
            [
              9.1906,
              45.464
            ]
          ]
        ]
      }
    },
    {
      "type": "Feature",
      "properties": {
        "building": "POLOA",
        "floor": "7",
        "room": "724",
        "sensor_ids": [
          216,
          217,
          218,
          219,
          220
        ]
      },
      "geometry": {
        "type": "Polygon",
        "coordinates": [
          [
            [
              9.19,
              45.46415
            ],
            [
              9.190059999999999,
              45.46415
            ],
            [
              9.190059999999999,
              45.464189999999995
            ],
            [
              9.19,
              45.464189999999995
            ],
            [
              9.19,
              45.46415
            ]
          ]
        ]
      }
    },
    {
      "type": "Feature",
      "properties": {
        "building": "POLOA",
        "floor": "7",
        "room": "726",
        "sensor_ids": [
          221,
          222,
          223,
          224,
          225
        ]
      },
      "geometry": {
        "type": "Polygon",
        "coordinates": [
          [
            [
              9.19015,
              45.46415
            ],
            [
              9.190209999999999,
              45.46415
            ],
            [
              9.190209999999999,
              45.464189999999995
            ],
            [
              9.19015,
              45.464189999999995
            ],
            [
              9.19015,
              45.46415
            ]
          ]
        ]
      }
    },
    {
      "type": "Feature",
      "properties": {
        "building": "POLOA",
        "floor": "7",
        "room": "734",
        "sensor_ids": [
          226,
          227,
          228,
          229,
          230
        ]
      },
      "geometry": {
        "type": "Polygon",
        "coordinates": [
          [
            [
              9.190299999999999,
              45.46415
            ],
            [
              9.190359999999998,
              45.46415
            ],
            [
              9.190359999999998,
              45.464189999999995
            ],
            [
              9.190299999999999,
              45.464189999999995
            ],
            [
              9.190299999999999,
              45.46415
            ]
          ]
        ]
      }
    },
    {
      "type": "Feature",
      "properties": {
        "building": "POLOA",
        "floor": "7",
        "room": "746",
        "sensor_ids": [
          231,
          232,
          233,
          234,
          235
        ]
      },
      "geometry": {
        "type": "Polygon",
        "coordinates": [
          [
            [
              9.19045,
              45.46415
            ],
            [
              9.19051,
              45.46415
            ],
            [
              9.19051,
              45.464189999999995
            ],
            [
              9.19045,
              45.464189999999995
            ],
            [
              9.19045,
              45.46415
            ]
          ]
        ]
      }
    },
    {
      "type": "Feature",
      "properties": {
        "building": "POLOA",
        "floor": "7",
        "room": "748",
        "sensor_ids": [
          236,
          237,
          238,
          239,
          240
        ]
      },
      "geometry": {
        "type": "Polygon",
        "coordinates": [
          [
            [
              9.1906,
              45.46415
            ],
            [
              9.19066,
              45.46415
            ],
            [
              9.19066,
              45.464189999999995
            ],
            [
              9.1906,
              45.464189999999995
            ],
            [
              9.1906,
              45.46415
            ]
          ]
        ]
      }
    },
    {
      "type": "Feature",
      "properties": {
        "building": "POLOA",
        "floor": "7",
        "room": "752",
        "sensor_ids": [
          241,
          242,
          243,
          244,
          245
        ]
      },
      "geometry": {
        "type": "Polygon",
        "coordinates": [
          [
            [
              9.19,
              45.4643
            ],
            [
              9.190059999999999,
              45.4643
            ],
            [
              9.190059999999999,
              45.46434
            ],
            [
              9.19,
              45.46434
            ],
            [
              9.19,
              45.4643
            ]
          ]
        ]
      }
    },
    {
      "type": "Feature",
      "properties": {
        "building": "POLOA",
        "floor": "7",
        "room": "754",
        "sensor_ids": [
          246,
          247,
          248,
          249,
          250
        ]
      },
      "geometry": {
        "type": "Polygon",
        "coordinates": [
          [
            [
              9.19015,
              45.4643
            ],
            [
              9.190209999999999,
              45.4643
            ],
            [
              9.190209999999999,
              45.46434
            ],
            [
              9.19015,
              45.46434
            ],
            [
              9.19015,
              45.4643
            ]
          ]
        ]
      }
    },
    {
      "type": "Feature",
      "properties": {
        "building": "POLOA",
        "floor": "7",
        "room": "776",
        "sensor_ids": [
          251,
          252,
          253,
          254,
          255
        ]
      },
      "geometry": {
        "type": "Polygon",
        "coordinates": [
          [
            [
              9.190299999999999,
              45.4643
            ],
            [
              9.190359999999998,
              45.4643
            ],
            [
              9.190359999999998,
              45.46434
            ],
            [
              9.190299999999999,
              45.46434
            ],
            [
              9.190299999999999,
              45.4643
            ]
          ]
        ]
      }
    }
  ]
}