{
  "type": "FeatureCollection",
  "features": [
    {
      "type": "Feature",
      "properties": {
        "building": "POLOA",
        "floor": "5",
        "room": "510",
        "sensor_ids": [
          81,
          82,
          83,
          84,
          85
        ]
      },
      "geometry": {
        "type": "Polygon",
        "coordinates": [
          [
            [
              9.19,
              45.464
            ],
            [
              9.190059999999999,
              45.464
            ],
            [
              9.190059999999999,
              45.46404
            ],
            [
              9.19,
              45.46404
            ],
            [
              9.19,
              45.464
            ]
          ]
        ]
      }
    },
    {
      "type": "Feature",
      "properties": {
        "building": "POLOA",
        "floor": "5",
        "room": "511",
        "sensor_ids": [
          86,
          87,
          88,
          89,
          90
        ]
      },
      "geometry": {
        "type": "Polygon",
        "coordinates": [
          [
            [
              9.19015,
              45.464
            ],
            [
              9.190209999999999,
              45.464
            ],
            [
              9.190209999999999,
              45.46404
            ],
            [
              9.19015,
              45.46404
            ],
            [
              9.19015,
              45.464
            ]
          ]
        ]
      }
    },
    {
      "type": "Feature",
      "properties": {
        "building": "POLOA",
        "floor": "5",
        "room": "513",
        "sensor_ids": [
          91,
          92,
          93,
          94,
          95
        ]
      },
      "geometry": {
        "type": "Polygon",
        "coordinates": [
          [
            [
              9.190299999999999,
              45.464
            ],
            [
              9.190359999999998,
              45.464
            ],
            [
              9.190359999999998,
              45.46404
            ],
            [
              9.190299999999999,
              45.46404
            ],
            [
              9.190299999999999,
              45.464
            ]
          ]
        ]
      }
    },
    {
      "type": "Feature",
      "properties": {
        "building": "POLOA",
        "floor": "5",
        "room": "552",
        "sensor_ids": [
          96,
          97,
          98,
          99,
          100
        ]
      },
      "geometry": {
        "type": "Polygon",
        "coordinates": [
          [
            [
              9.19045,
              45.464
            ],
            [
              9.19051,
              45.464
            ],
            [
              9.19051,
              45.46404
            ],
            [
              9.19045,
              45.46404
            ],
            [
              9.19045,
              45.464
            ]
          ]
        ]
      }
    },
    {
      "type": "Feature",
      "properties": {
        "building": "POLOA",
        "floor": "5",
        "room": "554",
        "sensor_ids": [
          101,
          102,
          103,
          104,
          105
        ]
      },
      "geometry": {
        "type": "Polygon",
        "coordinates": [
          [
            [
              9.1906,
              45.464
            ],
            [
              9.19066,
              45.464
            ],
            [
              9.19066,
              45.46404
            ],
            [
              9.1906,
              45.46404
            ],
            [
              9.1906,
              45.464
            ]
          ]
        ]
      }
    },
    {
      "type": "Feature",
      "properties": {
        "building": "POLOA",
        "floor": "5",
        "room": "556",
        "sensor_ids": [
          106,
          107,
          108,
          109,
          110
        ]
      },
      "geometry": {
        "type": "Polygon",
        "coordinates": [
          [
            [
              9.19,
              45.46415
            ],
            [
              9.190059999999999,
              45.46415
            ],
            [
              9.190059999999999,
              45.464189999999995
            ],
            [
              9.19,
              45.464189999999995
            ],
            [
              9.19,
              45.46415
            ]
          ]
        ]
      }
    },
    {
      "type": "Feature",
      "properties": {
        "building": "POLOA",
        "floor": "5",
        "room": "558",
        "sensor_ids": [
          111,
          112,
          113,
          114,
          115
        ]
      },
      "geometry": {
        "type": "Polygon",
        "coordinates": [
          [
            [
              9.19015,
              45.46415
            ],
            [
              9.190209999999999,
              45.46415
            ],
            [
              9.190209999999999,
              45.464189999999995
            ],
            [
              9.19015,
              45.464189999999995
            ],
            [
              9.19015,
              45.46415
            ]
          ]
        ]
      }
    },
    {
      "type": "Feature",
      "properties": {
        "building": "POLOA",
        "floor": "5",
        "room": "562",
        "sensor_ids": [
          116,
          117,
          118,
          119,
          120
        ]
      },
      "geometry": {
        "type": "Polygon",
        "coordinates": [
          [
            [
              9.190299999999999,
              45.46415
            ],
            [
              9.190359999999998,
              45.46415
            ],
            [
              9.190359999999998,
              45.464189999999995
            ],
            [
              9.190299999999999,
              45.464189999999995
            ],
            [
              9.190299999999999,
              45.46415
            ]
          ]
        ]
      }
    },
    {
      "type": "Feature",
      "properties": {
        "building": "POLOA",
        "floor": "5",
        "room": "564",
        "sensor_ids": [
          121,
          122,
          123,
          124,
          125
        ]
      },
      "geometry": {
        "type": "Polygon",
        "coordinates": [
          [
            [
              9.19045,
              45.46415
            ],
            [
              9.19051,
              45.46415
            ],
            [
              9.19051,
              45.464189999999995
            ],
            [
              9.19045,
              45.464189999999995
            ],
            [
              9.19045,
              45.46415
            ]
          ]
        ]
      }
    }
  ]
}